{
  "type": "FeatureCollection",
  "features": [
    {
      "type": "Feature",
      "properties": {
        "norad_id": 66394,
        "name": "STARLINK-35672",
        "group": "last-30-days",
        "lat": 29.46293116441685,
        "lon": 72.27690370898652,
        "alt_km": 442.58473561615665,
        "timestamp": "2025-12-09T23:33:22.606610+00:00",
        "meta_object_name": "STARLINK-35672",
        "meta_object_id": "2025-257Q",
        "meta_epoch": "2025-12-09T02:41:25.904832",
        "meta_mean_motion": 15.39631651,
        "meta_eccentricity": 0.00012385,
        "meta_inclination": 53.1593,
        "meta_ra_of_asc_node": 281.4337,
        "meta_arg_of_pericenter": 83.799,
        "meta_mean_anomaly": 276.3156,
        "meta_ephemeris_type": 0,
        "meta_classification_type": "U",
        "meta_norad_cat_id": 66394,
        "meta_element_set_no": 999,
        "meta_rev_at_epoch": 581,
        "meta_bstar": 0.0028492606,
        "meta_mean_motion_dot": 0.00115352,
        "meta_mean_motion_ddot": 0,
        "tle_line1": "1 66394U 25257Q   25343.11210538  .00115352  00000+0  28493-2 0  9991",
        "tle_line2": "2 66394  53.1593 281.4337 0001238  83.7990 276.3156 15.39631651  5818"
      },
      "geometry": {
        "type": "Point",
        "coordinates": [
          72.27690370898652,
          29.46293116441685
        ]
      }
    },
    {
      "type": "Feature",
      "properties": {
        "norad_id": 66395,
        "name": "STARLINK-35681",
        "group": "last-30-days",
        "lat": 11.429626687380926,
        "lon": 88.57138331124304,
        "alt_km": 446.2278568161237,
        "timestamp": "2025-12-09T23:33:22.606626+00:00",
        "meta_object_name": "STARLINK-35681",
        "meta_object_id": "2025-257R",
        "meta_epoch": "2025-12-09T16:00:01.999584",
        "meta_mean_motion": 15.39519622,
        "meta_eccentricity": 9.564e-05,
        "meta_inclination": 53.1596,
        "meta_ra_of_asc_node": 278.7733,
        "meta_arg_of_pericenter": 113.816,
        "meta_mean_anomaly": 105.8933,
        "meta_ephemeris_type": 0,
        "meta_classification_type": "U",
        "meta_norad_cat_id": 66395,
        "meta_element_set_no": 999,
        "meta_rev_at_epoch": 584,
        "meta_bstar": 0.0024624268,
        "meta_mean_motion_dot": 0.00099056,
        "meta_mean_motion_ddot": 0,
        "tle_line1": "1 66395U 25257R   25343.66668981  .00099056  00000+0  24624-2 0  9995",
        "tle_line2": "2 66395  53.1596 278.7733 0000956 113.8160 105.8933 15.39519622  5846"
      },
      "geometry": {
        "type": "Point",
        "coordinates": [
          88.57138331124304,
          11.429626687380926
        ]
      }
    },
    {
      "type": "Feature",
      "properties": {
        "norad_id": 66396,
        "name": "STARLINK-35669",
        "group": "last-30-days",
        "lat": 9.977407589595288,
        "lon": 89.7058816668297,
        "alt_km": 446.54673168035515,
        "timestamp": "2025-12-09T23:33:22.606639+00:00",
        "meta_object_name": "STARLINK-35669",
        "meta_object_id": "2025-257S",
        "meta_epoch": "2025-12-09T16:00:01.999584",
        "meta_mean_motion": 15.39532933,
        "meta_eccentricity": 9.152e-05,
        "meta_inclination": 53.1595,
        "meta_ra_of_asc_node": 278.7686,
        "meta_arg_of_pericenter": 103.6111,
        "meta_mean_anomaly": 117.9176,
        "meta_ephemeris_type": 0,
        "meta_classification_type": "U",
        "meta_norad_cat_id": 66396,
        "meta_element_set_no": 999,
        "meta_rev_at_epoch": 600,
        "meta_bstar": 0.002266553,
        "meta_mean_motion_dot": 0.00091089,
        "meta_mean_motion_ddot": 0,
        "tle_line1": "1 66396U 25257S   25343.66668981  .00091089  00000+0  22666-2 0  9998",
        "tle_line2": "2 66396  53.1595 278.7686 0000915 103.6111 117.9176 15.39532933  6003"
      },
      "geometry": {
        "type": "Point",
        "coordinates": [
          89.7058816668297,
          9.977407589595288
        ]
      }
    },
    {
      "type": "Feature",
      "properties": {
        "norad_id": 66397,
        "name": "STARLINK-35510",
        "group": "last-30-days",
        "lat": -9.10885941698963,
        "lon": 104.14168965851144,
        "alt_km": 449.3351564747463,
        "timestamp": "2025-12-09T23:33:22.606651+00:00",
        "meta_object_name": "STARLINK-35510",
        "meta_object_id": "2025-257T",
        "meta_epoch": "2025-12-09T16:00:01.999584",
        "meta_mean_motion": 15.39541514,
        "meta_eccentricity": 0.00012468,
        "meta_inclination": 53.1598,
        "meta_ra_of_asc_node": 278.7215,
        "meta_arg_of_pericenter": 98.5508,
        "meta_mean_anomaly": 146.8798,
        "meta_ephemeris_type": 0,
        "meta_classification_type": "U",
        "meta_norad_cat_id": 66397,
        "meta_element_set_no": 999,
        "meta_rev_at_epoch": 600,
        "meta_bstar": 0.0021118356,
        "meta_mean_motion_dot": 0.00084797,
        "meta_mean_motion_ddot": 0,
        "tle_line1": "1 66397U 25257T   25343.66668981  .00084797  00000+0  21118-2 0  9998",
        "tle_line2": "2 66397  53.1598 278.7215 0001246  98.5508 146.8798 15.39541514  6001"
      },
      "geometry": {
        "type": "Point",
        "coordinates": [
          104.14168965851144,
          -9.10885941698963
        ]
      }
    },
    {
      "type": "Feature",
      "properties": {
        "norad_id": 66398,
        "name": "STARLINK-35642",
        "group": "last-30-days",
        "lat": -28.90182046903781,
        "lon": 121.63634475731395,
        "alt_km": 451.64930245361666,
        "timestamp": "2025-12-09T23:33:22.606664+00:00",
        "meta_object_name": "STARLINK-35642",
        "meta_object_id": "2025-257U",
        "meta_epoch": "2025-12-09T16:00:01.999584",
        "meta_mean_motion": 15.3951688,
        "meta_eccentricity": 0.00013184,
        "meta_inclination": 53.1598,
        "meta_ra_of_asc_node": 278.67,
        "meta_arg_of_pericenter": 87.7508,
        "meta_mean_anomaly": 183.4659,
        "meta_ephemeris_type": 0,
        "meta_classification_type": "U",
        "meta_norad_cat_id": 66398,
        "meta_element_set_no": 999,
        "meta_rev_at_epoch": 600,
        "meta_bstar": 0.0027620658,
        "meta_mean_motion_dot": 0.00111329,
        "meta_mean_motion_ddot": 0,
        "tle_line1": "1 66398U 25257U   25343.66668981  .00111329  00000+0  27621-2 0  9996",
        "tle_line2": "2 66398  53.1598 278.6700 0001318  87.7508 183.4659 15.39516880  6001"
      },
      "geometry": {
        "type": "Point",
        "coordinates": [
          121.63634475731395,
          -28.90182046903781
        ]
      }
    },
    {
      "type": "Feature",
      "properties": {
        "norad_id": 66399,
        "name": "STARLINK-35657",
        "group": "last-30-days",
        "lat": -10.567348063360285,
        "lon": 105.27360130690859,
        "alt_km": 449.43659860931257,
        "timestamp": "2025-12-09T23:33:22.606677+00:00",
        "meta_object_name": "STARLINK-35657",
        "meta_object_id": "2025-257V",
        "meta_epoch": "2025-12-09T16:00:01.999584",
        "meta_mean_motion": 15.39521878,
        "meta_eccentricity": 0.00011374,
        "meta_inclination": 53.1598,
        "meta_ra_of_asc_node": 278.7173,
        "meta_arg_of_pericenter": 107.1564,
        "meta_mean_anomaly": 140.1326,
        "meta_ephemeris_type": 0,
        "meta_classification_type": "U",
        "meta_norad_cat_id": 66399,
        "meta_element_set_no": 999,
        "meta_rev_at_epoch": 600,
        "meta_bstar": 0.0024019936,
        "meta_mean_motion_dot": 0.00096591,
        "meta_mean_motion_ddot": 0,
        "tle_line1": "1 66399U 25257V   25343.66668981  .00096591  00000+0  24020-2 0  9990",
        "tle_line2": "2 66399  53.1598 278.7173 0001137 107.1564 140.1326 15.39521878  6009"
      },
      "geometry": {
        "type": "Point",
        "coordinates": [
          105.27360130690859,
          -10.567348063360285
        ]
      }
    },
    {
      "type": "Feature",
      "properties": {
        "norad_id": 66400,
        "name": "STARLINK-35667",
        "group": "last-30-days",
        "lat": -45.40226697064785,
        "lon": 146.62880808754886,
        "alt_km": 452.67290003107246,
        "timestamp": "2025-12-09T23:33:22.606690+00:00",
        "meta_object_name": "STARLINK-35667",
        "meta_object_id": "2025-257W",
        "meta_epoch": "2025-12-09T16:00:01.999584",
        "meta_mean_motion": 15.39527187,
        "meta_eccentricity": 0.00012486,
        "meta_inclination": 53.1591,
        "meta_ra_of_asc_node": 278.6181,
        "meta_arg_of_pericenter": 86.3513,
        "meta_mean_anomaly": 210.6025,
        "meta_ephemeris_type": 0,
        "meta_classification_type": "U",
        "meta_norad_cat_id": 66400,
        "meta_element_set_no": 999,
        "meta_rev_at_epoch": 600,
        "meta_bstar": 0.002670549,
        "meta_mean_motion_dot": 0.0010761,
        "meta_mean_motion_ddot": 0,
        "tle_line1": "1 66400U 25257W   25343.66668981  .00107610  00000+0  26705-2 0  9990",
        "tle_line2": "2 66400  53.1591 278.6181 0001248  86.3513 210.6025 15.39527187  6006"
      },
      "geometry": {
        "type": "Point",
        "coordinates": [
          146.62880808754886,
          -45.40226697064785
        ]
      }
    }
  ]
}